{
"type": "FeatureCollection",
"name": "exandria_gdz",
"features": [
{ "type": "Feature", "properties": { "id": 1, "left": -5000000.0, "top": 2000000.0, "right": -4400000.0, "bottom": 1200000.0, "row_index": 0, "col_index": 0, "gzd_col_index": -9, "gzd_row_index": 1, "gzd_code": "22Q" }, "geometry": { "type": "Polygon", "coordinates": [ [ [ -5000000.0, 2000000.0 ], [ -4400000.0, 2000000.0 ], [ -4400000.0, 1200000.0 ], [ -5000000.0, 1200000.0 ], [ -5000000.0, 2000000.0 ] ] ] } },
{ "type": "Feature", "properties": { "id": 2, "left": -5000000.0, "top": 1200000.0, "right": -4400000.0, "bottom": 400000.0, "row_index": 1, "col_index": 0, "gzd_col_index": -9, "gzd_row_index": 0, "gzd_code": "22P" }, "geometry": { "type": "Polygon", "coordinates": [ [ [ -5000000.0, 1200000.0 ], [ -4400000.0, 1200000.0 ], [ -4400000.0, 400000.0 ], [ -5000000.0, 400000.0 ], [ -5000000.0, 1200000.0 ] ] ] } },
{ "type": "Feature", "properties": { "id": 3, "left": -5000000.0, "top": 400000.0, "right": -4400000.0, "bottom": -400000.0, "row_index": 2, "col_index": 0, "gzd_col_index": -9, "gzd_row_index": -1, "gzd_code": "22N" }, "geometry": { "type": "Polygon", "coordinates": [ [ [ -5000000.0, 400000.0 ], [ -4400000.0, 400000.0 ], [ -4400000.0, -400000.0 ], [ -5000000.0, -400000.0 ], [ -5000000.0, 400000.0 ] ] ] } },
{ "type": "Feature", "properties": { "id": 4, "left": -5000000.0, "top": -400000.0, "right": -4400000.0, "bottom": -1200000.0, "row_index": 3, "col_index": 0, "gzd_col_index": -9, "gzd_row_index": -2, "gzd_code": "22M" }, "geometry": { "type": "Polygon", "coordinates": [ [ [ -5000000.0, -400000.0 ], [ -4400000.0, -400000.0 ], [ -4400000.0, -1200000.0 ], [ -5000000.0, -1200000.0 ], [ -5000000.0, -400000.0 ] ] ] } },
{ "type": "Feature", "properties": { "id": 5, "left": -5000000.0, "top": -1200000.0, "right": -4400000.0, "bottom": -2000000.0, "row_index": 4, "col_index": 0, "gzd_col_index": -9, "gzd_row_index": -3, "gzd_code": "22L" }, "geometry": { "type": "Polygon", "coordinates": [ [ [ -5000000.0, -1200000.0 ], [ -4400000.0, -1200000.0 ], [ -4400000.0, -2000000.0 ], [ -5000000.0, -2000000.0 ], [ -5000000.0, -1200000.0 ] ] ] } },
{ "type": "Feature", "properties": { "id": 6, "left": -5000000.0, "top": -2000000.0, "right": -4400000.0, "bottom": -2800000.0, "row_index": 5, "col_index": 0, "gzd_col_index": -9, "gzd_row_index": -4, "gzd_code": "22K" }, "geometry": { "type": "Polygon", "coordinates": [ [ [ -5000000.0, -2000000.0 ], [ -4400000.0, -2000000.0 ], [ -4400000.0, -2800000.0 ], [ -5000000.0, -2800000.0 ], [ -5000000.0, -2000000.0 ] ] ] } },
{ "type": "Feature", "properties": { "id": 7, "left": -5000000.0, "top": -2800000.0, "right": -4400000.0, "bottom": -3600000.0, "row_index": 6, "col_index": 0, "gzd_col_index": -9, "gzd_row_index": -5, "gzd_code": "22J" }, "geometry": { "type": "Polygon", "coordinates": [ [ [ -5000000.0, -2800000.0 ], [ -4400000.0, -2800000.0 ], [ -4400000.0, -3600000.0 ], [ -5000000.0, -3600000.0 ], [ -5000000.0, -2800000.0 ] ] ] } },
{ "type": "Feature", "properties": { "id": 8, "left": -5000000.0, "top": -3600000.0, "right": -4400000.0, "bottom": -4400000.0, "row_index": 7, "col_index": 0, "gzd_col_index": -9, "gzd_row_index": -6, "gzd_code": "22H" }, "geometry": { "type": "Polygon", "coordinates": [ [ [ -5000000.0, -3600000.0 ], [ -4400000.0, -3600000.0 ], [ -4400000.0, -4400000.0 ], [ -5000000.0, -4400000.0 ], [ -5000000.0, -3600000.0 ] ] ] } },
{ "type": "Feature", "properties": { "id": 9, "left": -5000000.0, "top": -4400000.0, "right": -4400000.0, "bottom": -5200000.0, "row_index": 8, "col_index": 0, "gzd_col_index": -9, "gzd_row_index": -7, "gzd_code": "22G" }, "geometry": { "type": "Polygon", "coordinates": [ [ [ -5000000.0, -4400000.0 ], [ -4400000.0, -4400000.0 ], [ -4400000.0, -5200000.0 ], [ -5000000.0, -5200000.0 ], [ -5000000.0, -4400000.0 ] ] ] } },
{ "type": "Feature", "properties": { "id": 10, "left": -4400000.0, "top": 2000000.0, "right": -3800000.0, "bottom": 1200000.0, "row_index": 0, "col_index": 1, "gzd_col_index": -8, "gzd_row_index": 1, "gzd_code": "23Q" }, "geometry": { "type": "Polygon", "coordinates": [ [ [ -4400000.0, 2000000.0 ], [ -3800000.0, 2000000.0 ], [ -3800000.0, 1200000.0 ], [ -4400000.0, 1200000.0 ], [ -4400000.0, 2000000.0 ] ] ] } },
{ "type": "Feature", "properties": { "id": 11, "left": -4400000.0, "top": 1200000.0, "right": -3800000.0, "bottom": 400000.0, "row_index": 1, "col_index": 1, "gzd_col_index": -8, "gzd_row_index": 0, "gzd_code": "23P" }, "geometry": { "type": "Polygon", "coordinates": [ [ [ -4400000.0, 1200000.0 ], [ -3800000.0, 1200000.0 ], [ -3800000.0, 400000.0 ], [ -4400000.0, 400000.0 ], [ -4400000.0, 1200000.0 ] ] ] } },
{ "type": "Feature", "properties": { "id": 12, "left": -4400000.0, "top": 400000.0, "right": -3800000.0, "bottom": -400000.0, "row_index": 2, "col_index": 1, "gzd_col_index": -8, "gzd_row_index": -1, "gzd_code": "23N" }, "geometry": { "type": "Polygon", "coordinates": [ [ [ -4400000.0, 400000.0 ], [ -3800000.0, 400000.0 ], [ -3800000.0, -400000.0 ], [ -4400000.0, -400000.0 ], [ -4400000.0, 400000.0 ] ] ] } },
{ "type": "Feature", "properties": { "id": 13, "left": -4400000.0, "top": -400000.0, "right": -3800000.0, "bottom": -1200000.0, "row_index": 3, "col_index": 1, "gzd_col_index": -8, "gzd_row_index": -2, "gzd_code": "23M" }, "geometry": { "type": "Polygon", "coordinates": [ [ [ -4400000.0, -400000.0 ], [ -3800000.0, -400000.0 ], [ -3800000.0, -1200000.0 ], [ -4400000.0, -1200000.0 ], [ -4400000.0, -400000.0 ] ] ] } },
{ "type": "Feature", "properties": { "id": 14, "left": -4400000.0, "top": -1200000.0, "right": -3800000.0, "bottom": -2000000.0, "row_index": 4, "col_index": 1, "gzd_col_index": -8, "gzd_row_index": -3, "gzd_code": "23L" }, "geometry": { "type": "Polygon", "coordinates": [ [ [ -4400000.0, -1200000.0 ], [ -3800000.0, -1200000.0 ], [ -3800000.0, -2000000.0 ], [ -4400000.0, -2000000.0 ], [ -4400000.0, -1200000.0 ] ] ] } },
{ "type": "Feature", "properties": { "id": 15, "left": -4400000.0, "top": -2000000.0, "right": -3800000.0, "bottom": -2800000.0, "row_index": 5, "col_index": 1, "gzd_col_index": -8, "gzd_row_index": -4, "gzd_code": "23K" }, "geometry": { "type": "Polygon", "coordinates": [ [ [ -4400000.0, -2000000.0 ], [ -3800000.0, -2000000.0 ], [ -3800000.0, -2800000.0 ], [ -4400000.0, -2800000.0 ], [ -4400000.0, -2000000.0 ] ] ] } },
{ "type": "Feature", "properties": { "id": 16, "left": -4400000.0, "top": -2800000.0, "right": -3800000.0, "bottom": -3600000.0, "row_index": 6, "col_index": 1, "gzd_col_index": -8, "gzd_row_index": -5, "gzd_code": "23J" }, "geometry": { "type": "Polygon", "coordinates": [ [ [ -4400000.0, -2800000.0 ], [ -3800000.0, -2800000.0 ], [ -3800000.0, -3600000.0 ], [ -4400000.0, -3600000.0 ], [ -4400000.0, -2800000.0 ] ] ] } },
{ "type": "Feature", "properties": { "id": 17, "left": -4400000.0, "top": -3600000.0, "right": -3800000.0, "bottom": -4400000.0, "row_index": 7, "col_index": 1, "gzd_col_index": -8, "gzd_row_index": -6, "gzd_code": "23H" }, "geometry": { "type": "Polygon", "coordinates": [ [ [ -4400000.0, -3600000.0 ], [ -3800000.0, -3600000.0 ], [ -3800000.0, -4400000.0 ], [ -4400000.0, -4400000.0 ], [ -4400000.0, -3600000.0 ] ] ] } },
{ "type": "Feature", "properties": { "id": 18, "left": -4400000.0, "top": -4400000.0, "right": -3800000.0, "bottom": -5200000.0, "row_index": 8, "col_index": 1, "gzd_col_index": -8, "gzd_row_index": -7, "gzd_code": "23G" }, "geometry": { "type": "Polygon", "coordinates": [ [ [ -4400000.0, -4400000.0 ], [ -3800000.0, -4400000.0 ], [ -3800000.0, -5200000.0 ], [ -4400000.0, -5200000.0 ], [ -4400000.0, -4400000.0 ] ] ] } },
{ "type": "Feature", "properties": { "id": 19, "left": -3800000.0, "top": 2000000.0, "right": -3200000.0, "bottom": 1200000.0, "row_index": 0, "col_index": 2, "gzd_col_index": -7, "gzd_row_index": 1, "gzd_code": "24Q" }, "geometry": { "type": "Polygon", "coordinates": [ [ [ -3800000.0, 2000000.0 ], [ -3200000.0, 2000000.0 ], [ -3200000.0, 1200000.0 ], [ -3800000.0, 1200000.0 ], [ -3800000.0, 2000000.0 ] ] ] } },
{ "type": "Feature", "properties": { "id": 20, "left": -3800000.0, "top": 1200000.0, "right": -3200000.0, "bottom": 400000.0, "row_index": 1, "col_index": 2, "gzd_col_index": -7, "gzd_row_index": 0, "gzd_code": "24P" }, "geometry": { "type": "Polygon", "coordinates": [ [ [ -3800000.0, 1200000.0 ], [ -3200000.0, 1200000.0 ], [ -3200000.0, 400000.0 ], [ -3800000.0, 400000.0 ], [ -3800000.0, 1200000.0 ] ] ] } },
{ "type": "Feature", "properties": { "id": 21, "left": -3800000.0, "top": 400000.0, "right": -3200000.0, "bottom": -400000.0, "row_index": 2, "col_index": 2, "gzd_col_index": -7, "gzd_row_index": -1, "gzd_code": "24N" }, "geometry": { "type": "Polygon", "coordinates": [ [ [ -3800000.0, 400000.0 ], [ -3200000.0, 400000.0 ], [ -3200000.0, -400000.0 ], [ -3800000.0, -400000.0 ], [ -3800000.0, 400000.0 ] ] ] } },
{ "type": "Feature", "properties": { "id": 22, "left": -3800000.0, "top": -400000.0, "right": -3200000.0, "bottom": -1200000.0, "row_index": 3, "col_index": 2, "gzd_col_index": -7, "gzd_row_index": -2, "gzd_code": "24M" }, "geometry": { "type": "Polygon", "coordinates": [ [ [ -3800000.0, -400000.0 ], [ -3200000.0, -400000.0 ], [ -3200000.0, -1200000.0 ], [ -3800000.0, -1200000.0 ], [ -3800000.0, -400000.0 ] ] ] } },
{ "type": "Feature", "properties": { "id": 23, "left": -3800000.0, "top": -1200000.0, "right": -3200000.0, "bottom": -2000000.0, "row_index": 4, "col_index": 2, "gzd_col_index": -7, "gzd_row_index": -3, "gzd_code": "24L" }, "geometry": { "type": "Polygon", "coordinates": [ [ [ -3800000.0, -1200000.0 ], [ -3200000.0, -1200000.0 ], [ -3200000.0, -2000000.0 ], [ -3800000.0, -2000000.0 ], [ -3800000.0, -1200000.0 ] ] ] } },
{ "type": "Feature", "properties": { "id": 24, "left": -3800000.0, "top": -2000000.0, "right": -3200000.0, "bottom": -2800000.0, "row_index": 5, "col_index": 2, "gzd_col_index": -7, "gzd_row_index": -4, "gzd_code": "24K" }, "geometry": { "type": "Polygon", "coordinates": [ [ [ -3800000.0, -2000000.0 ], [ -3200000.0, -2000000.0 ], [ -3200000.0, -2800000.0 ], [ -3800000.0, -2800000.0 ], [ -3800000.0, -2000000.0 ] ] ] } },
{ "type": "Feature", "properties": { "id": 25, "left": -3800000.0, "top": -2800000.0, "right": -3200000.0, "bottom": -3600000.0, "row_index": 6, "col_index": 2, "gzd_col_index": -7, "gzd_row_index": -5, "gzd_code": "24J" }, "geometry": { "type": "Polygon", "coordinates": [ [ [ -3800000.0, -2800000.0 ], [ -3200000.0, -2800000.0 ], [ -3200000.0, -3600000.0 ], [ -3800000.0, -3600000.0 ], [ -3800000.0, -2800000.0 ] ] ] } },
{ "type": "Feature", "properties": { "id": 26, "left": -3800000.0, "top": -3600000.0, "right": -3200000.0, "bottom": -4400000.0, "row_index": 7, "col_index": 2, "gzd_col_index": -7, "gzd_row_index": -6, "gzd_code": "24H" }, "geometry": { "type": "Polygon", "coordinates": [ [ [ -3800000.0, -3600000.0 ], [ -3200000.0, -3600000.0 ], [ -3200000.0, -4400000.0 ], [ -3800000.0, -4400000.0 ], [ -3800000.0, -3600000.0 ] ] ] } },
{ "type": "Feature", "properties": { "id": 27, "left": -3800000.0, "top": -4400000.0, "right": -3200000.0, "bottom": -5200000.0, "row_index": 8, "col_index": 2, "gzd_col_index": -7, "gzd_row_index": -7, "gzd_code": "24G" }, "geometry": { "type": "Polygon", "coordinates": [ [ [ -3800000.0, -4400000.0 ], [ -3200000.0, -4400000.0 ], [ -3200000.0, -5200000.0 ], [ -3800000.0, -5200000.0 ], [ -3800000.0, -4400000.0 ] ] ] } },
{ "type": "Feature", "properties": { "id": 28, "left": -3200000.0, "top": 2000000.0, "right": -2600000.0, "bottom": 1200000.0, "row_index": 0, "col_index": 3, "gzd_col_index": -6, "gzd_row_index": 1, "gzd_code": "25Q" }, "geometry": { "type": "Polygon", "coordinates": [ [ [ -3200000.0, 2000000.0 ], [ -2600000.0, 2000000.0 ], [ -2600000.0, 1200000.0 ], [ -3200000.0, 1200000.0 ], [ -3200000.0, 2000000.0 ] ] ] } },
{ "type": "Feature", "properties": { "id": 29, "left": -3200000.0, "top": 1200000.0, "right": -2600000.0, "bottom": 400000.0, "row_index": 1, "col_index": 3, "gzd_col_index": -6, "gzd_row_index": 0, "gzd_code": "25P" }, "geometry": { "type": "Polygon", "coordinates": [ [ [ -3200000.0, 1200000.0 ], [ -2600000.0, 1200000.0 ], [ -2600000.0, 400000.0 ], [ -3200000.0, 400000.0 ], [ -3200000.0, 1200000.0 ] ] ] } },
{ "type": "Feature", "properties": { "id": 30, "left": -3200000.0, "top": 400000.0, "right": -2600000.0, "bottom": -400000.0, "row_index": 2, "col_index": 3, "gzd_col_index": -6, "gzd_row_index": -1, "gzd_code": "25N" }, "geometry": { "type": "Polygon", "coordinates": [ [ [ -3200000.0, 400000.0 ], [ -2600000.0, 400000.0 ], [ -2600000.0, -400000.0 ], [ -3200000.0, -400000.0 ], [ -3200000.0, 400000.0 ] ] ] } },
{ "type": "Feature", "properties": { "id": 31, "left": -3200000.0, "top": -400000.0, "right": -2600000.0, "bottom": -1200000.0, "row_index": 3, "col_index": 3, "gzd_col_index": -6, "gzd_row_index": -2, "gzd_code": "25M" }, "geometry": { "type": "Polygon", "coordinates": [ [ [ -3200000.0, -400000.0 ], [ -2600000.0, -400000.0 ], [ -2600000.0, -1200000.0 ], [ -3200000.0, -1200000.0 ], [ -3200000.0, -400000.0 ] ] ] } },
{ "type": "Feature", "properties": { "id": 32, "left": -3200000.0, "top": -1200000.0, "right": -2600000.0, "bottom": -2000000.0, "row_index": 4, "col_index": 3, "gzd_col_index": -6, "gzd_row_index": -3, "gzd_code": "25L" }, "geometry": { "type": "Polygon", "coordinates": [ [ [ -3200000.0, -1200000.0 ], [ -2600000.0, -1200000.0 ], [ -2600000.0, -2000000.0 ], [ -3200000.0, -2000000.0 ], [ -3200000.0, -1200000.0 ] ] ] } },
{ "type": "Feature", "properties": { "id": 33, "left": -3200000.0, "top": -2000000.0, "right": -2600000.0, "bottom": -2800000.0, "row_index": 5, "col_index": 3, "gzd_col_index": -6, "gzd_row_index": -4, "gzd_code": "25K" }, "geometry": { "type": "Polygon", "coordinates": [ [ [ -3200000.0, -2000000.0 ], [ -2600000.0, -2000000.0 ], [ -2600000.0, -2800000.0 ], [ -3200000.0, -2800000.0 ], [ -3200000.0, -2000000.0 ] ] ] } },
{ "type": "Feature", "properties": { "id": 34, "left": -3200000.0, "top": -2800000.0, "right": -2600000.0, "bottom": -3600000.0, "row_index": 6, "col_index": 3, "gzd_col_index": -6, "gzd_row_index": -5, "gzd_code": "25J" }, "geometry": { "type": "Polygon", "coordinates": [ [ [ -3200000.0, -2800000.0 ], [ -2600000.0, -2800000.0 ], [ -2600000.0, -3600000.0 ], [ -3200000.0, -3600000.0 ], [ -3200000.0, -2800000.0 ] ] ] } },
{ "type": "Feature", "properties": { "id": 35, "left": -3200000.0, "top": -3600000.0, "right": -2600000.0, "bottom": -4400000.0, "row_index": 7, "col_index": 3, "gzd_col_index": -6, "gzd_row_index": -6, "gzd_code": "25H" }, "geometry": { "type": "Polygon", "coordinates": [ [ [ -3200000.0, -3600000.0 ], [ -2600000.0, -3600000.0 ], [ -2600000.0, -4400000.0 ], [ -3200000.0, -4400000.0 ], [ -3200000.0, -3600000.0 ] ] ] } },
{ "type": "Feature", "properties": { "id": 36, "left": -3200000.0, "top": -4400000.0, "right": -2600000.0, "bottom": -5200000.0, "row_index": 8, "col_index": 3, "gzd_col_index": -6, "gzd_row_index": -7, "gzd_code": "25G" }, "geometry": { "type": "Polygon", "coordinates": [ [ [ -3200000.0, -4400000.0 ], [ -2600000.0, -4400000.0 ], [ -2600000.0, -5200000.0 ], [ -3200000.0, -5200000.0 ], [ -3200000.0, -4400000.0 ] ] ] } },
{ "type": "Feature", "properties": { "id": 37, "left": -2600000.0, "top": 2000000.0, "right": -2000000.0, "bottom": 1200000.0, "row_index": 0, "col_index": 4, "gzd_col_index": -5, "gzd_row_index": 1, "gzd_code": "26Q" }, "geometry": { "type": "Polygon", "coordinates": [ [ [ -2600000.0, 2000000.0 ], [ -2000000.0, 2000000.0 ], [ -2000000.0, 1200000.0 ], [ -2600000.0, 1200000.0 ], [ -2600000.0, 2000000.0 ] ] ] } },
{ "type": "Feature", "properties": { "id": 38, "left": -2600000.0, "top": 1200000.0, "right": -2000000.0, "bottom": 400000.0, "row_index": 1, "col_index": 4, "gzd_col_index": -5, "gzd_row_index": 0, "gzd_code": "26P" }, "geometry": { "type": "Polygon", "coordinates": [ [ [ -2600000.0, 1200000.0 ], [ -2000000.0, 1200000.0 ], [ -2000000.0, 400000.0 ], [ -2600000.0, 400000.0 ], [ -2600000.0, 1200000.0 ] ] ] } },
{ "type": "Feature", "properties": { "id": 39, "left": -2600000.0, "top": 400000.0, "right": -2000000.0, "bottom": -400000.0, "row_index": 2, "col_index": 4, "gzd_col_index": -5, "gzd_row_index": -1, "gzd_code": "26N" }, "geometry": { "type": "Polygon", "coordinates": [ [ [ -2600000.0, 400000.0 ], [ -2000000.0, 400000.0 ], [ -2000000.0, -400000.0 ], [ -2600000.0, -400000.0 ], [ -2600000.0, 400000.0 ] ] ] } },
{ "type": "Feature", "properties": { "id": 40, "left": -2600000.0, "top": -400000.0, "right": -2000000.0, "bottom": -1200000.0, "row_index": 3, "col_index": 4, "gzd_col_index": -5, "gzd_row_index": -2, "gzd_code": "26M" }, "geometry": { "type": "Polygon", "coordinates": [ [ [ -2600000.0, -400000.0 ], [ -2000000.0, -400000.0 ], [ -2000000.0, -1200000.0 ], [ -2600000.0, -1200000.0 ], [ -2600000.0, -400000.0 ] ] ] } },
{ "type": "Feature", "properties": { "id": 41, "left": -2600000.0, "top": -1200000.0, "right": -2000000.0, "bottom": -2000000.0, "row_index": 4, "col_index": 4, "gzd_col_index": -5, "gzd_row_index": -3, "gzd_code": "26L" }, "geometry": { "type": "Polygon", "coordinates": [ [ [ -2600000.0, -1200000.0 ], [ -2000000.0, -1200000.0 ], [ -2000000.0, -2000000.0 ], [ -2600000.0, -2000000.0 ], [ -2600000.0, -1200000.0 ] ] ] } },
{ "type": "Feature", "properties": { "id": 42, "left": -2600000.0, "top": -2000000.0, "right": -2000000.0, "bottom": -2800000.0, "row_index": 5, "col_index": 4, "gzd_col_index": -5, "gzd_row_index": -4, "gzd_code": "26K" }, "geometry": { "type": "Polygon", "coordinates": [ [ [ -2600000.0, -2000000.0 ], [ -2000000.0, -2000000.0 ], [ -2000000.0, -2800000.0 ], [ -2600000.0, -2800000.0 ], [ -2600000.0, -2000000.0 ] ] ] } },
{ "type": "Feature", "properties": { "id": 43, "left": -2600000.0, "top": -2800000.0, "right": -2000000.0, "bottom": -3600000.0, "row_index": 6, "col_index": 4, "gzd_col_index": -5, "gzd_row_index": -5, "gzd_code": "26J" }, "geometry": { "type": "Polygon", "coordinates": [ [ [ -2600000.0, -2800000.0 ], [ -2000000.0, -2800000.0 ], [ -2000000.0, -3600000.0 ], [ -2600000.0, -3600000.0 ], [ -2600000.0, -2800000.0 ] ] ] } },
{ "type": "Feature", "properties": { "id": 44, "left": -2600000.0, "top": -3600000.0, "right": -2000000.0, "bottom": -4400000.0, "row_index": 7, "col_index": 4, "gzd_col_index": -5, "gzd_row_index": -6, "gzd_code": "26H" }, "geometry": { "type": "Polygon", "coordinates": [ [ [ -2600000.0, -3600000.0 ], [ -2000000.0, -3600000.0 ], [ -2000000.0, -4400000.0 ], [ -2600000.0, -4400000.0 ], [ -2600000.0, -3600000.0 ] ] ] } },
{ "type": "Feature", "properties": { "id": 45, "left": -2600000.0, "top": -4400000.0, "right": -2000000.0, "bottom": -5200000.0, "row_index": 8, "col_index": 4, "gzd_col_index": -5, "gzd_row_index": -7, "gzd_code": "26G" }, "geometry": { "type": "Polygon", "coordinates": [ [ [ -2600000.0, -4400000.0 ], [ -2000000.0, -4400000.0 ], [ -2000000.0, -5200000.0 ], [ -2600000.0, -5200000.0 ], [ -2600000.0, -4400000.0 ] ] ] } },
{ "type": "Feature", "properties": { "id": 46, "left": -2000000.0, "top": 2000000.0, "right": -1400000.0, "bottom": 1200000.0, "row_index": 0, "col_index": 5, "gzd_col_index": -4, "gzd_row_index": 1, "gzd_code": "27Q" }, "geometry": { "type": "Polygon", "coordinates": [ [ [ -2000000.0, 2000000.0 ], [ -1400000.0, 2000000.0 ], [ -1400000.0, 1200000.0 ], [ -2000000.0, 1200000.0 ], [ -2000000.0, 2000000.0 ] ] ] } },
{ "type": "Feature", "properties": { "id": 47, "left": -2000000.0, "top": 1200000.0, "right": -1400000.0, "bottom": 400000.0, "row_index": 1, "col_index": 5, "gzd_col_index": -4, "gzd_row_index": 0, "gzd_code": "27P" }, "geometry": { "type": "Polygon", "coordinates": [ [ [ -2000000.0, 1200000.0 ], [ -1400000.0, 1200000.0 ], [ -1400000.0, 400000.0 ], [ -2000000.0, 400000.0 ], [ -2000000.0, 1200000.0 ] ] ] } },
{ "type": "Feature", "properties": { "id": 48, "left": -2000000.0, "top": 400000.0, "right": -1400000.0, "bottom": -400000.0, "row_index": 2, "col_index": 5, "gzd_col_index": -4, "gzd_row_index": -1, "gzd_code": "27N" }, "geometry": { "type": "Polygon", "coordinates": [ [ [ -2000000.0, 400000.0 ], [ -1400000.0, 400000.0 ], [ -1400000.0, -400000.0 ], [ -2000000.0, -400000.0 ], [ -2000000.0, 400000.0 ] ] ] } },
{ "type": "Feature", "properties": { "id": 49, "left": -2000000.0, "top": -400000.0, "right": -1400000.0, "bottom": -1200000.0, "row_index": 3, "col_index": 5, "gzd_col_index": -4, "gzd_row_index": -2, "gzd_code": "27M" }, "geometry": { "type": "Polygon", "coordinates": [ [ [ -2000000.0, -400000.0 ], [ -1400000.0, -400000.0 ], [ -1400000.0, -1200000.0 ], [ -2000000.0, -1200000.0 ], [ -2000000.0, -400000.0 ] ] ] } },
{ "type": "Feature", "properties": { "id": 50, "left": -2000000.0, "top": -1200000.0, "right": -1400000.0, "bottom": -2000000.0, "row_index": 4, "col_index": 5, "gzd_col_index": -4, "gzd_row_index": -3, "gzd_code": "27L" }, "geometry": { "type": "Polygon", "coordinates": [ [ [ -2000000.0, -1200000.0 ], [ -1400000.0, -1200000.0 ], [ -1400000.0, -2000000.0 ], [ -2000000.0, -2000000.0 ], [ -2000000.0, -1200000.0 ] ] ] } },
{ "type": "Feature", "properties": { "id": 51, "left": -2000000.0, "top": -2000000.0, "right": -1400000.0, "bottom": -2800000.0, "row_index": 5, "col_index": 5, "gzd_col_index": -4, "gzd_row_index": -4, "gzd_code": "27K" }, "geometry": { "type": "Polygon", "coordinates": [ [ [ -2000000.0, -2000000.0 ], [ -1400000.0, -2000000.0 ], [ -1400000.0, -2800000.0 ], [ -2000000.0, -2800000.0 ], [ -2000000.0, -2000000.0 ] ] ] } },
{ "type": "Feature", "properties": { "id": 52, "left": -2000000.0, "top": -2800000.0, "right": -1400000.0, "bottom": -3600000.0, "row_index": 6, "col_index": 5, "gzd_col_index": -4, "gzd_row_index": -5, "gzd_code": "27J" }, "geometry": { "type": "Polygon", "coordinates": [ [ [ -2000000.0, -2800000.0 ], [ -1400000.0, -2800000.0 ], [ -1400000.0, -3600000.0 ], [ -2000000.0, -3600000.0 ], [ -2000000.0, -2800000.0 ] ] ] } },
{ "type": "Feature", "properties": { "id": 53, "left": -2000000.0, "top": -3600000.0, "right": -1400000.0, "bottom": -4400000.0, "row_index": 7, "col_index": 5, "gzd_col_index": -4, "gzd_row_index": -6, "gzd_code": "27H" }, "geometry": { "type": "Polygon", "coordinates": [ [ [ -2000000.0, -3600000.0 ], [ -1400000.0, -3600000.0 ], [ -1400000.0, -4400000.0 ], [ -2000000.0, -4400000.0 ], [ -2000000.0, -3600000.0 ] ] ] } },
{ "type": "Feature", "properties": { "id": 54, "left": -2000000.0, "top": -4400000.0, "right": -1400000.0, "bottom": -5200000.0, "row_index": 8, "col_index": 5, "gzd_col_index": -4, "gzd_row_index": -7, "gzd_code": "27G" }, "geometry": { "type": "Polygon", "coordinates": [ [ [ -2000000.0, -4400000.0 ], [ -1400000.0, -4400000.0 ], [ -1400000.0, -5200000.0 ], [ -2000000.0, -5200000.0 ], [ -2000000.0, -4400000.0 ] ] ] } },
{ "type": "Feature", "properties": { "id": 55, "left": -1400000.0, "top": 2000000.0, "right": -800000.0, "bottom": 1200000.0, "row_index": 0, "col_index": 6, "gzd_col_index": -3, "gzd_row_index": 1, "gzd_code": "28Q" }, "geometry": { "type": "Polygon", "coordinates": [ [ [ -1400000.0, 2000000.0 ], [ -800000.0, 2000000.0 ], [ -800000.0, 1200000.0 ], [ -1400000.0, 1200000.0 ], [ -1400000.0, 2000000.0 ] ] ] } },
{ "type": "Feature", "properties": { "id": 56, "left": -1400000.0, "top": 1200000.0, "right": -800000.0, "bottom": 400000.0, "row_index": 1, "col_index": 6, "gzd_col_index": -3, "gzd_row_index": 0, "gzd_code": "28P" }, "geometry": { "type": "Polygon", "coordinates": [ [ [ -1400000.0, 1200000.0 ], [ -800000.0, 1200000.0 ], [ -800000.0, 400000.0 ], [ -1400000.0, 400000.0 ], [ -1400000.0, 1200000.0 ] ] ] } },
{ "type": "Feature", "properties": { "id": 57, "left": -1400000.0, "top": 400000.0, "right": -800000.0, "bottom": -400000.0, "row_index": 2, "col_index": 6, "gzd_col_index": -3, "gzd_row_index": -1, "gzd_code": "28N" }, "geometry": { "type": "Polygon", "coordinates": [ [ [ -1400000.0, 400000.0 ], [ -800000.0, 400000.0 ], [ -800000.0, -400000.0 ], [ -1400000.0, -400000.0 ], [ -1400000.0, 400000.0 ] ] ] } },
{ "type": "Feature", "properties": { "id": 58, "left": -1400000.0, "top": -400000.0, "right": -800000.0, "bottom": -1200000.0, "row_index": 3, "col_index": 6, "gzd_col_index": -3, "gzd_row_index": -2, "gzd_code": "28M" }, "geometry": { "type": "Polygon", "coordinates": [ [ [ -1400000.0, -400000.0 ], [ -800000.0, -400000.0 ], [ -800000.0, -1200000.0 ], [ -1400000.0, -1200000.0 ], [ -1400000.0, -400000.0 ] ] ] } },
{ "type": "Feature", "properties": { "id": 59, "left": -1400000.0, "top": -1200000.0, "right": -800000.0, "bottom": -2000000.0, "row_index": 4, "col_index": 6, "gzd_col_index": -3, "gzd_row_index": -3, "gzd_code": "28L" }, "geometry": { "type": "Polygon", "coordinates": [ [ [ -1400000.0, -1200000.0 ], [ -800000.0, -1200000.0 ], [ -800000.0, -2000000.0 ], [ -1400000.0, -2000000.0 ], [ -1400000.0, -1200000.0 ] ] ] } },
{ "type": "Feature", "properties": { "id": 60, "left": -1400000.0, "top": -2000000.0, "right": -800000.0, "bottom": -2800000.0, "row_index": 5, "col_index": 6, "gzd_col_index": -3, "gzd_row_index": -4, "gzd_code": "28K" }, "geometry": { "type": "Polygon", "coordinates": [ [ [ -1400000.0, -2000000.0 ], [ -800000.0, -2000000.0 ], [ -800000.0, -2800000.0 ], [ -1400000.0, -2800000.0 ], [ -1400000.0, -2000000.0 ] ] ] } },
{ "type": "Feature", "properties": { "id": 61, "left": -1400000.0, "top": -2800000.0, "right": -800000.0, "bottom": -3600000.0, "row_index": 6, "col_index": 6, "gzd_col_index": -3, "gzd_row_index": -5, "gzd_code": "28J" }, "geometry": { "type": "Polygon", "coordinates": [ [ [ -1400000.0, -2800000.0 ], [ -800000.0, -2800000.0 ], [ -800000.0, -3600000.0 ], [ -1400000.0, -3600000.0 ], [ -1400000.0, -2800000.0 ] ] ] } },
{ "type": "Feature", "properties": { "id": 62, "left": -1400000.0, "top": -3600000.0, "right": -800000.0, "bottom": -4400000.0, "row_index": 7, "col_index": 6, "gzd_col_index": -3, "gzd_row_index": -6, "gzd_code": "28H" }, "geometry": { "type": "Polygon", "coordinates": [ [ [ -1400000.0, -3600000.0 ], [ -800000.0, -3600000.0 ], [ -800000.0, -4400000.0 ], [ -1400000.0, -4400000.0 ], [ -1400000.0, -3600000.0 ] ] ] } },
{ "type": "Feature", "properties": { "id": 63, "left": -1400000.0, "top": -4400000.0, "right": -800000.0, "bottom": -5200000.0, "row_index": 8, "col_index": 6, "gzd_col_index": -3, "gzd_row_index": -7, "gzd_code": "28G" }, "geometry": { "type": "Polygon", "coordinates": [ [ [ -1400000.0, -4400000.0 ], [ -800000.0, -4400000.0 ], [ -800000.0, -5200000.0 ], [ -1400000.0, -5200000.0 ], [ -1400000.0, -4400000.0 ] ] ] } },
{ "type": "Feature", "properties": { "id": 64, "left": -800000.0, "top": 2000000.0, "right": -200000.0, "bottom": 1200000.0, "row_index": 0, "col_index": 7, "gzd_col_index": -2, "gzd_row_index": 1, "gzd_code": "29Q" }, "geometry": { "type": "Polygon", "coordinates": [ [ [ -800000.0, 2000000.0 ], [ -200000.0, 2000000.0 ], [ -200000.0, 1200000.0 ], [ -800000.0, 1200000.0 ], [ -800000.0, 2000000.0 ] ] ] } },
{ "type": "Feature", "properties": { "id": 65, "left": -800000.0, "top": 1200000.0, "right": -200000.0, "bottom": 400000.0, "row_index": 1, "col_index": 7, "gzd_col_index": -2, "gzd_row_index": 0, "gzd_code": "29P" }, "geometry": { "type": "Polygon", "coordinates": [ [ [ -800000.0, 1200000.0 ], [ -200000.0, 1200000.0 ], [ -200000.0, 400000.0 ], [ -800000.0, 400000.0 ], [ -800000.0, 1200000.0 ] ] ] } },
{ "type": "Feature", "properties": { "id": 66, "left": -800000.0, "top": 400000.0, "right": -200000.0, "bottom": -400000.0, "row_index": 2, "col_index": 7, "gzd_col_index": -2, "gzd_row_index": -1, "gzd_code": "29N" }, "geometry": { "type": "Polygon", "coordinates": [ [ [ -800000.0, 400000.0 ], [ -200000.0, 400000.0 ], [ -200000.0, -400000.0 ], [ -800000.0, -400000.0 ], [ -800000.0, 400000.0 ] ] ] } },
{ "type": "Feature", "properties": { "id": 67, "left": -800000.0, "top": -400000.0, "right": -200000.0, "bottom": -1200000.0, "row_index": 3, "col_index": 7, "gzd_col_index": -2, "gzd_row_index": -2, "gzd_code": "29M" }, "geometry": { "type": "Polygon", "coordinates": [ [ [ -800000.0, -400000.0 ], [ -200000.0, -400000.0 ], [ -200000.0, -1200000.0 ], [ -800000.0, -1200000.0 ], [ -800000.0, -400000.0 ] ] ] } },
{ "type": "Feature", "properties": { "id": 68, "left": -800000.0, "top": -1200000.0, "right": -200000.0, "bottom": -2000000.0, "row_index": 4, "col_index": 7, "gzd_col_index": -2, "gzd_row_index": -3, "gzd_code": "29L" }, "geometry": { "type": "Polygon", "coordinates": [ [ [ -800000.0, -1200000.0 ], [ -200000.0, -1200000.0 ], [ -200000.0, -2000000.0 ], [ -800000.0, -2000000.0 ], [ -800000.0, -1200000.0 ] ] ] } },
{ "type": "Feature", "properties": { "id": 69, "left": -800000.0, "top": -2000000.0, "right": -200000.0, "bottom": -2800000.0, "row_index": 5, "col_index": 7, "gzd_col_index": -2, "gzd_row_index": -4, "gzd_code": "29K" }, "geometry": { "type": "Polygon", "coordinates": [ [ [ -800000.0, -2000000.0 ], [ -200000.0, -2000000.0 ], [ -200000.0, -2800000.0 ], [ -800000.0, -2800000.0 ], [ -800000.0, -2000000.0 ] ] ] } },
{ "type": "Feature", "properties": { "id": 70, "left": -800000.0, "top": -2800000.0, "right": -200000.0, "bottom": -3600000.0, "row_index": 6, "col_index": 7, "gzd_col_index": -2, "gzd_row_index": -5, "gzd_code": "29J" }, "geometry": { "type": "Polygon", "coordinates": [ [ [ -800000.0, -2800000.0 ], [ -200000.0, -2800000.0 ], [ -200000.0, -3600000.0 ], [ -800000.0, -3600000.0 ], [ -800000.0, -2800000.0 ] ] ] } },
{ "type": "Feature", "properties": { "id": 71, "left": -800000.0, "top": -3600000.0, "right": -200000.0, "bottom": -4400000.0, "row_index": 7, "col_index": 7, "gzd_col_index": -2, "gzd_row_index": -6, "gzd_code": "29H" }, "geometry": { "type": "Polygon", "coordinates": [ [ [ -800000.0, -3600000.0 ], [ -200000.0, -3600000.0 ], [ -200000.0, -4400000.0 ], [ -800000.0, -4400000.0 ], [ -800000.0, -3600000.0 ] ] ] } },
{ "type": "Feature", "properties": { "id": 72, "left": -800000.0, "top": -4400000.0, "right": -200000.0, "bottom": -5200000.0, "row_index": 8, "col_index": 7, "gzd_col_index": -2, "gzd_row_index": -7, "gzd_code": "29G" }, "geometry": { "type": "Polygon", "coordinates": [ [ [ -800000.0, -4400000.0 ], [ -200000.0, -4400000.0 ], [ -200000.0, -5200000.0 ], [ -800000.0, -5200000.0 ], [ -800000.0, -4400000.0 ] ] ] } },
{ "type": "Feature", "properties": { "id": 73, "left": -200000.0, "top": 2000000.0, "right": 400000.0, "bottom": 1200000.0, "row_index": 0, "col_index": 8, "gzd_col_index": -1, "gzd_row_index": 1, "gzd_code": "30Q" }, "geometry": { "type": "Polygon", "coordinates": [ [ [ -200000.0, 2000000.0 ], [ 400000.0, 2000000.0 ], [ 400000.0, 1200000.0 ], [ -200000.0, 1200000.0 ], [ -200000.0, 2000000.0 ] ] ] } },
{ "type": "Feature", "properties": { "id": 74, "left": -200000.0, "top": 1200000.0, "right": 400000.0, "bottom": 400000.0, "row_index": 1, "col_index": 8, "gzd_col_index": -1, "gzd_row_index": 0, "gzd_code": "30P" }, "geometry": { "type": "Polygon", "coordinates": [ [ [ -200000.0, 1200000.0 ], [ 400000.0, 1200000.0 ], [ 400000.0, 400000.0 ], [ -200000.0, 400000.0 ], [ -200000.0, 1200000.0 ] ] ] } },
{ "type": "Feature", "properties": { "id": 75, "left": -200000.0, "top": 400000.0, "right": 400000.0, "bottom": -400000.0, "row_index": 2, "col_index": 8, "gzd_col_index": -1, "gzd_row_index": -1, "gzd_code": "30N" }, "geometry": { "type": "Polygon", "coordinates": [ [ [ -200000.0, 400000.0 ], [ 400000.0, 400000.0 ], [ 400000.0, -400000.0 ], [ -200000.0, -400000.0 ], [ -200000.0, 400000.0 ] ] ] } },
{ "type": "Feature", "properties": { "id": 76, "left": -200000.0, "top": -400000.0, "right": 400000.0, "bottom": -1200000.0, "row_index": 3, "col_index": 8, "gzd_col_index": -1, "gzd_row_index": -2, "gzd_code": "30M" }, "geometry": { "type": "Polygon", "coordinates": [ [ [ -200000.0, -400000.0 ], [ 400000.0, -400000.0 ], [ 400000.0, -1200000.0 ], [ -200000.0, -1200000.0 ], [ -200000.0, -400000.0 ] ] ] } },
{ "type": "Feature", "properties": { "id": 77, "left": -200000.0, "top": -1200000.0, "right": 400000.0, "bottom": -2000000.0, "row_index": 4, "col_index": 8, "gzd_col_index": -1, "gzd_row_index": -3, "gzd_code": "30L" }, "geometry": { "type": "Polygon", "coordinates": [ [ [ -200000.0, -1200000.0 ], [ 400000.0, -1200000.0 ], [ 400000.0, -2000000.0 ], [ -200000.0, -2000000.0 ], [ -200000.0, -1200000.0 ] ] ] } },
{ "type": "Feature", "properties": { "id": 78, "left": -200000.0, "top": -2000000.0, "right": 400000.0, "bottom": -2800000.0, "row_index": 5, "col_index": 8, "gzd_col_index": -1, "gzd_row_index": -4, "gzd_code": "30K" }, "geometry": { "type": "Polygon", "coordinates": [ [ [ -200000.0, -2000000.0 ], [ 400000.0, -2000000.0 ], [ 400000.0, -2800000.0 ], [ -200000.0, -2800000.0 ], [ -200000.0, -2000000.0 ] ] ] } },
{ "type": "Feature", "properties": { "id": 79, "left": -200000.0, "top": -2800000.0, "right": 400000.0, "bottom": -3600000.0, "row_index": 6, "col_index": 8, "gzd_col_index": -1, "gzd_row_index": -5, "gzd_code": "30J" }, "geometry": { "type": "Polygon", "coordinates": [ [ [ -200000.0, -2800000.0 ], [ 400000.0, -2800000.0 ], [ 400000.0, -3600000.0 ], [ -200000.0, -3600000.0 ], [ -200000.0, -2800000.0 ] ] ] } },
{ "type": "Feature", "properties": { "id": 80, "left": -200000.0, "top": -3600000.0, "right": 400000.0, "bottom": -4400000.0, "row_index": 7, "col_index": 8, "gzd_col_index": -1, "gzd_row_index": -6, "gzd_code": "30H" }, "geometry": { "type": "Polygon", "coordinates": [ [ [ -200000.0, -3600000.0 ], [ 400000.0, -3600000.0 ], [ 400000.0, -4400000.0 ], [ -200000.0, -4400000.0 ], [ -200000.0, -3600000.0 ] ] ] } },
{ "type": "Feature", "properties": { "id": 81, "left": -200000.0, "top": -4400000.0, "right": 400000.0, "bottom": -5200000.0, "row_index": 8, "col_index": 8, "gzd_col_index": -1, "gzd_row_index": -7, "gzd_code": "30G" }, "geometry": { "type": "Polygon", "coordinates": [ [ [ -200000.0, -4400000.0 ], [ 400000.0, -4400000.0 ], [ 400000.0, -5200000.0 ], [ -200000.0, -5200000.0 ], [ -200000.0, -4400000.0 ] ] ] } },
{ "type": "Feature", "properties": { "id": 82, "left": 400000.0, "top": 2000000.0, "right": 1000000.0, "bottom": 1200000.0, "row_index": 0, "col_index": 9, "gzd_col_index": 0, "gzd_row_index": 1, "gzd_code": "31Q" }, "geometry": { "type": "Polygon", "coordinates": [ [ [ 400000.0, 2000000.0 ], [ 1000000.0, 2000000.0 ], [ 1000000.0, 1200000.0 ], [ 400000.0, 1200000.0 ], [ 400000.0, 2000000.0 ] ] ] } },
{ "type": "Feature", "properties": { "id": 83, "left": 400000.0, "top": 1200000.0, "right": 1000000.0, "bottom": 400000.0, "row_index": 1, "col_index": 9, "gzd_col_index": 0, "gzd_row_index": 0, "gzd_code": "31P" }, "geometry": { "type": "Polygon", "coordinates": [ [ [ 400000.0, 1200000.0 ], [ 1000000.0, 1200000.0 ], [ 1000000.0, 400000.0 ], [ 400000.0, 400000.0 ], [ 400000.0, 1200000.0 ] ] ] } },
{ "type": "Feature", "properties": { "id": 84, "left": 400000.0, "top": 400000.0, "right": 1000000.0, "bottom": -400000.0, "row_index": 2, "col_index": 9, "gzd_col_index": 0, "gzd_row_index": -1, "gzd_code": "31N" }, "geometry": { "type": "Polygon", "coordinates": [ [ [ 400000.0, 400000.0 ], [ 1000000.0, 400000.0 ], [ 1000000.0, -400000.0 ], [ 400000.0, -400000.0 ], [ 400000.0, 400000.0 ] ] ] } },
{ "type": "Feature", "properties": { "id": 85, "left": 400000.0, "top": -400000.0, "right": 1000000.0, "bottom": -1200000.0, "row_index": 3, "col_index": 9, "gzd_col_index": 0, "gzd_row_index": -2, "gzd_code": "31M" }, "geometry": { "type": "Polygon", "coordinates": [ [ [ 400000.0, -400000.0 ], [ 1000000.0, -400000.0 ], [ 1000000.0, -1200000.0 ], [ 400000.0, -1200000.0 ], [ 400000.0, -400000.0 ] ] ] } },
{ "type": "Feature", "properties": { "id": 86, "left": 400000.0, "top": -1200000.0, "right": 1000000.0, "bottom": -2000000.0, "row_index": 4, "col_index": 9, "gzd_col_index": 0, "gzd_row_index": -3, "gzd_code": "31L" }, "geometry": { "type": "Polygon", "coordinates": [ [ [ 400000.0, -1200000.0 ], [ 1000000.0, -1200000.0 ], [ 1000000.0, -2000000.0 ], [ 400000.0, -2000000.0 ], [ 400000.0, -1200000.0 ] ] ] } },
{ "type": "Feature", "properties": { "id": 87, "left": 400000.0, "top": -2000000.0, "right": 1000000.0, "bottom": -2800000.0, "row_index": 5, "col_index": 9, "gzd_col_index": 0, "gzd_row_index": -4, "gzd_code": "31K" }, "geometry": { "type": "Polygon", "coordinates": [ [ [ 400000.0, -2000000.0 ], [ 1000000.0, -2000000.0 ], [ 1000000.0, -2800000.0 ], [ 400000.0, -2800000.0 ], [ 400000.0, -2000000.0 ] ] ] } },
{ "type": "Feature", "properties": { "id": 88, "left": 400000.0, "top": -2800000.0, "right": 1000000.0, "bottom": -3600000.0, "row_index": 6, "col_index": 9, "gzd_col_index": 0, "gzd_row_index": -5, "gzd_code": "31J" }, "geometry": { "type": "Polygon", "coordinates": [ [ [ 400000.0, -2800000.0 ], [ 1000000.0, -2800000.0 ], [ 1000000.0, -3600000.0 ], [ 400000.0, -3600000.0 ], [ 400000.0, -2800000.0 ] ] ] } },
{ "type": "Feature", "properties": { "id": 89, "left": 400000.0, "top": -3600000.0, "right": 1000000.0, "bottom": -4400000.0, "row_index": 7, "col_index": 9, "gzd_col_index": 0, "gzd_row_index": -6, "gzd_code": "31H" }, "geometry": { "type": "Polygon", "coordinates": [ [ [ 400000.0, -3600000.0 ], [ 1000000.0, -3600000.0 ], [ 1000000.0, -4400000.0 ], [ 400000.0, -4400000.0 ], [ 400000.0, -3600000.0 ] ] ] } },
{ "type": "Feature", "properties": { "id": 90, "left": 400000.0, "top": -4400000.0, "right": 1000000.0, "bottom": -5200000.0, "row_index": 8, "col_index": 9, "gzd_col_index": 0, "gzd_row_index": -7, "gzd_code": "31G" }, "geometry": { "type": "Polygon", "coordinates": [ [ [ 400000.0, -4400000.0 ], [ 1000000.0, -4400000.0 ], [ 1000000.0, -5200000.0 ], [ 400000.0, -5200000.0 ], [ 400000.0, -4400000.0 ] ] ] } },
{ "type": "Feature", "properties": { "id": 91, "left": 1000000.0, "top": 2000000.0, "right": 1600000.0, "bottom": 1200000.0, "row_index": 0, "col_index": 10, "gzd_col_index": 1, "gzd_row_index": 1, "gzd_code": "32Q" }, "geometry": { "type": "Polygon", "coordinates": [ [ [ 1000000.0, 2000000.0 ], [ 1600000.0, 2000000.0 ], [ 1600000.0, 1200000.0 ], [ 1000000.0, 1200000.0 ], [ 1000000.0, 2000000.0 ] ] ] } },
{ "type": "Feature", "properties": { "id": 92, "left": 1000000.0, "top": 1200000.0, "right": 1600000.0, "bottom": 400000.0, "row_index": 1, "col_index": 10, "gzd_col_index": 1, "gzd_row_index": 0, "gzd_code": "32P" }, "geometry": { "type": "Polygon", "coordinates": [ [ [ 1000000.0, 1200000.0 ], [ 1600000.0, 1200000.0 ], [ 1600000.0, 400000.0 ], [ 1000000.0, 400000.0 ], [ 1000000.0, 1200000.0 ] ] ] } },
{ "type": "Feature", "properties": { "id": 93, "left": 1000000.0, "top": 400000.0, "right": 1600000.0, "bottom": -400000.0, "row_index": 2, "col_index": 10, "gzd_col_index": 1, "gzd_row_index": -1, "gzd_code": "32N" }, "geometry": { "type": "Polygon", "coordinates": [ [ [ 1000000.0, 400000.0 ], [ 1600000.0, 400000.0 ], [ 1600000.0, -400000.0 ], [ 1000000.0, -400000.0 ], [ 1000000.0, 400000.0 ] ] ] } },
{ "type": "Feature", "properties": { "id": 94, "left": 1000000.0, "top": -400000.0, "right": 1600000.0, "bottom": -1200000.0, "row_index": 3, "col_index": 10, "gzd_col_index": 1, "gzd_row_index": -2, "gzd_code": "32M" }, "geometry": { "type": "Polygon", "coordinates": [ [ [ 1000000.0, -400000.0 ], [ 1600000.0, -400000.0 ], [ 1600000.0, -1200000.0 ], [ 1000000.0, -1200000.0 ], [ 1000000.0, -400000.0 ] ] ] } },
{ "type": "Feature", "properties": { "id": 95, "left": 1000000.0, "top": -1200000.0, "right": 1600000.0, "bottom": -2000000.0, "row_index": 4, "col_index": 10, "gzd_col_index": 1, "gzd_row_index": -3, "gzd_code": "32L" }, "geometry": { "type": "Polygon", "coordinates": [ [ [ 1000000.0, -1200000.0 ], [ 1600000.0, -1200000.0 ], [ 1600000.0, -2000000.0 ], [ 1000000.0, -2000000.0 ], [ 1000000.0, -1200000.0 ] ] ] } },
{ "type": "Feature", "properties": { "id": 96, "left": 1000000.0, "top": -2000000.0, "right": 1600000.0, "bottom": -2800000.0, "row_index": 5, "col_index": 10, "gzd_col_index": 1, "gzd_row_index": -4, "gzd_code": "32K" }, "geometry": { "type": "Polygon", "coordinates": [ [ [ 1000000.0, -2000000.0 ], [ 1600000.0, -2000000.0 ], [ 1600000.0, -2800000.0 ], [ 1000000.0, -2800000.0 ], [ 1000000.0, -2000000.0 ] ] ] } },
{ "type": "Feature", "properties": { "id": 97, "left": 1000000.0, "top": -2800000.0, "right": 1600000.0, "bottom": -3600000.0, "row_index": 6, "col_index": 10, "gzd_col_index": 1, "gzd_row_index": -5, "gzd_code": "32J" }, "geometry": { "type": "Polygon", "coordinates": [ [ [ 1000000.0, -2800000.0 ], [ 1600000.0, -2800000.0 ], [ 1600000.0, -3600000.0 ], [ 1000000.0, -3600000.0 ], [ 1000000.0, -2800000.0 ] ] ] } },
{ "type": "Feature", "properties": { "id": 98, "left": 1000000.0, "top": -3600000.0, "right": 1600000.0, "bottom": -4400000.0, "row_index": 7, "col_index": 10, "gzd_col_index": 1, "gzd_row_index": -6, "gzd_code": "32H" }, "geometry": { "type": "Polygon", "coordinates": [ [ [ 1000000.0, -3600000.0 ], [ 1600000.0, -3600000.0 ], [ 1600000.0, -4400000.0 ], [ 1000000.0, -4400000.0 ], [ 1000000.0, -3600000.0 ] ] ] } },
{ "type": "Feature", "properties": { "id": 99, "left": 1000000.0, "top": -4400000.0, "right": 1600000.0, "bottom": -5200000.0, "row_index": 8, "col_index": 10, "gzd_col_index": 1, "gzd_row_index": -7, "gzd_code": "32G" }, "geometry": { "type": "Polygon", "coordinates": [ [ [ 1000000.0, -4400000.0 ], [ 1600000.0, -4400000.0 ], [ 1600000.0, -5200000.0 ], [ 1000000.0, -5200000.0 ], [ 1000000.0, -4400000.0 ] ] ] } },
{ "type": "Feature", "properties": { "id": 100, "left": 1600000.0, "top": 2000000.0, "right": 2200000.0, "bottom": 1200000.0, "row_index": 0, "col_index": 11, "gzd_col_index": 2, "gzd_row_index": 1, "gzd_code": "33Q" }, "geometry": { "type": "Polygon", "coordinates": [ [ [ 1600000.0, 2000000.0 ], [ 2200000.0, 2000000.0 ], [ 2200000.0, 1200000.0 ], [ 1600000.0, 1200000.0 ], [ 1600000.0, 2000000.0 ] ] ] } },
{ "type": "Feature", "properties": { "id": 101, "left": 1600000.0, "top": 1200000.0, "right": 2200000.0, "bottom": 400000.0, "row_index": 1, "col_index": 11, "gzd_col_index": 2, "gzd_row_index": 0, "gzd_code": "33P" }, "geometry": { "type": "Polygon", "coordinates": [ [ [ 1600000.0, 1200000.0 ], [ 2200000.0, 1200000.0 ], [ 2200000.0, 400000.0 ], [ 1600000.0, 400000.0 ], [ 1600000.0, 1200000.0 ] ] ] } },
{ "type": "Feature", "properties": { "id": 102, "left": 1600000.0, "top": 400000.0, "right": 2200000.0, "bottom": -400000.0, "row_index": 2, "col_index": 11, "gzd_col_index": 2, "gzd_row_index": -1, "gzd_code": "33N" }, "geometry": { "type": "Polygon", "coordinates": [ [ [ 1600000.0, 400000.0 ], [ 2200000.0, 400000.0 ], [ 2200000.0, -400000.0 ], [ 1600000.0, -400000.0 ], [ 1600000.0, 400000.0 ] ] ] } },
{ "type": "Feature", "properties": { "id": 103, "left": 1600000.0, "top": -400000.0, "right": 2200000.0, "bottom": -1200000.0, "row_index": 3, "col_index": 11, "gzd_col_index": 2, "gzd_row_index": -2, "gzd_code": "33M" }, "geometry": { "type": "Polygon", "coordinates": [ [ [ 1600000.0, -400000.0 ], [ 2200000.0, -400000.0 ], [ 2200000.0, -1200000.0 ], [ 1600000.0, -1200000.0 ], [ 1600000.0, -400000.0 ] ] ] } },
{ "type": "Feature", "properties": { "id": 104, "left": 1600000.0, "top": -1200000.0, "right": 2200000.0, "bottom": -2000000.0, "row_index": 4, "col_index": 11, "gzd_col_index": 2, "gzd_row_index": -3, "gzd_code": "33L" }, "geometry": { "type": "Polygon", "coordinates": [ [ [ 1600000.0, -1200000.0 ], [ 2200000.0, -1200000.0 ], [ 2200000.0, -2000000.0 ], [ 1600000.0, -2000000.0 ], [ 1600000.0, -1200000.0 ] ] ] } },
{ "type": "Feature", "properties": { "id": 105, "left": 1600000.0, "top": -2000000.0, "right": 2200000.0, "bottom": -2800000.0, "row_index": 5, "col_index": 11, "gzd_col_index": 2, "gzd_row_index": -4, "gzd_code": "33K" }, "geometry": { "type": "Polygon", "coordinates": [ [ [ 1600000.0, -2000000.0 ], [ 2200000.0, -2000000.0 ], [ 2200000.0, -2800000.0 ], [ 1600000.0, -2800000.0 ], [ 1600000.0, -2000000.0 ] ] ] } },
{ "type": "Feature", "properties": { "id": 106, "left": 1600000.0, "top": -2800000.0, "right": 2200000.0, "bottom": -3600000.0, "row_index": 6, "col_index": 11, "gzd_col_index": 2, "gzd_row_index": -5, "gzd_code": "33J" }, "geometry": { "type": "Polygon", "coordinates": [ [ [ 1600000.0, -2800000.0 ], [ 2200000.0, -2800000.0 ], [ 2200000.0, -3600000.0 ], [ 1600000.0, -3600000.0 ], [ 1600000.0, -2800000.0 ] ] ] } },
{ "type": "Feature", "properties": { "id": 107, "left": 1600000.0, "top": -3600000.0, "right": 2200000.0, "bottom": -4400000.0, "row_index": 7, "col_index": 11, "gzd_col_index": 2, "gzd_row_index": -6, "gzd_code": "33H" }, "geometry": { "type": "Polygon", "coordinates": [ [ [ 1600000.0, -3600000.0 ], [ 2200000.0, -3600000.0 ], [ 2200000.0, -4400000.0 ], [ 1600000.0, -4400000.0 ], [ 1600000.0, -3600000.0 ] ] ] } },
{ "type": "Feature", "properties": { "id": 108, "left": 1600000.0, "top": -4400000.0, "right": 2200000.0, "bottom": -5200000.0, "row_index": 8, "col_index": 11, "gzd_col_index": 2, "gzd_row_index": -7, "gzd_code": "33G" }, "geometry": { "type": "Polygon", "coordinates": [ [ [ 1600000.0, -4400000.0 ], [ 2200000.0, -4400000.0 ], [ 2200000.0, -5200000.0 ], [ 1600000.0, -5200000.0 ], [ 1600000.0, -4400000.0 ] ] ] } },
{ "type": "Feature", "properties": { "id": 109, "left": 2200000.0, "top": 2000000.0, "right": 2800000.0, "bottom": 1200000.0, "row_index": 0, "col_index": 12, "gzd_col_index": 3, "gzd_row_index": 1, "gzd_code": "34Q" }, "geometry": { "type": "Polygon", "coordinates": [ [ [ 2200000.0, 2000000.0 ], [ 2800000.0, 2000000.0 ], [ 2800000.0, 1200000.0 ], [ 2200000.0, 1200000.0 ], [ 2200000.0, 2000000.0 ] ] ] } },
{ "type": "Feature", "properties": { "id": 110, "left": 2200000.0, "top": 1200000.0, "right": 2800000.0, "bottom": 400000.0, "row_index": 1, "col_index": 12, "gzd_col_index": 3, "gzd_row_index": 0, "gzd_code": "34P" }, "geometry": { "type": "Polygon", "coordinates": [ [ [ 2200000.0, 1200000.0 ], [ 2800000.0, 1200000.0 ], [ 2800000.0, 400000.0 ], [ 2200000.0, 400000.0 ], [ 2200000.0, 1200000.0 ] ] ] } },
{ "type": "Feature", "properties": { "id": 111, "left": 2200000.0, "top": 400000.0, "right": 2800000.0, "bottom": -400000.0, "row_index": 2, "col_index": 12, "gzd_col_index": 3, "gzd_row_index": -1, "gzd_code": "34N" }, "geometry": { "type": "Polygon", "coordinates": [ [ [ 2200000.0, 400000.0 ], [ 2800000.0, 400000.0 ], [ 2800000.0, -400000.0 ], [ 2200000.0, -400000.0 ], [ 2200000.0, 400000.0 ] ] ] } },
{ "type": "Feature", "properties": { "id": 112, "left": 2200000.0, "top": -400000.0, "right": 2800000.0, "bottom": -1200000.0, "row_index": 3, "col_index": 12, "gzd_col_index": 3, "gzd_row_index": -2, "gzd_code": "34M" }, "geometry": { "type": "Polygon", "coordinates": [ [ [ 2200000.0, -400000.0 ], [ 2800000.0, -400000.0 ], [ 2800000.0, -1200000.0 ], [ 2200000.0, -1200000.0 ], [ 2200000.0, -400000.0 ] ] ] } },
{ "type": "Feature", "properties": { "id": 113, "left": 2200000.0, "top": -1200000.0, "right": 2800000.0, "bottom": -2000000.0, "row_index": 4, "col_index": 12, "gzd_col_index": 3, "gzd_row_index": -3, "gzd_code": "34L" }, "geometry": { "type": "Polygon", "coordinates": [ [ [ 2200000.0, -1200000.0 ], [ 2800000.0, -1200000.0 ], [ 2800000.0, -2000000.0 ], [ 2200000.0, -2000000.0 ], [ 2200000.0, -1200000.0 ] ] ] } },
{ "type": "Feature", "properties": { "id": 114, "left": 2200000.0, "top": -2000000.0, "right": 2800000.0, "bottom": -2800000.0, "row_index": 5, "col_index": 12, "gzd_col_index": 3, "gzd_row_index": -4, "gzd_code": "34K" }, "geometry": { "type": "Polygon", "coordinates": [ [ [ 2200000.0, -2000000.0 ], [ 2800000.0, -2000000.0 ], [ 2800000.0, -2800000.0 ], [ 2200000.0, -2800000.0 ], [ 2200000.0, -2000000.0 ] ] ] } },
{ "type": "Feature", "properties": { "id": 115, "left": 2200000.0, "top": -2800000.0, "right": 2800000.0, "bottom": -3600000.0, "row_index": 6, "col_index": 12, "gzd_col_index": 3, "gzd_row_index": -5, "gzd_code": "34J" }, "geometry": { "type": "Polygon", "coordinates": [ [ [ 2200000.0, -2800000.0 ], [ 2800000.0, -2800000.0 ], [ 2800000.0, -3600000.0 ], [ 2200000.0, -3600000.0 ], [ 2200000.0, -2800000.0 ] ] ] } },
{ "type": "Feature", "properties": { "id": 116, "left": 2200000.0, "top": -3600000.0, "right": 2800000.0, "bottom": -4400000.0, "row_index": 7, "col_index": 12, "gzd_col_index": 3, "gzd_row_index": -6, "gzd_code": "34H" }, "geometry": { "type": "Polygon", "coordinates": [ [ [ 2200000.0, -3600000.0 ], [ 2800000.0, -3600000.0 ], [ 2800000.0, -4400000.0 ], [ 2200000.0, -4400000.0 ], [ 2200000.0, -3600000.0 ] ] ] } },
{ "type": "Feature", "properties": { "id": 117, "left": 2200000.0, "top": -4400000.0, "right": 2800000.0, "bottom": -5200000.0, "row_index": 8, "col_index": 12, "gzd_col_index": 3, "gzd_row_index": -7, "gzd_code": "34G" }, "geometry": { "type": "Polygon", "coordinates": [ [ [ 2200000.0, -4400000.0 ], [ 2800000.0, -4400000.0 ], [ 2800000.0, -5200000.0 ], [ 2200000.0, -5200000.0 ], [ 2200000.0, -4400000.0 ] ] ] } },
{ "type": "Feature", "properties": { "id": 118, "left": 2800000.0, "top": 2000000.0, "right": 3400000.0, "bottom": 1200000.0, "row_index": 0, "col_index": 13, "gzd_col_index": 4, "gzd_row_index": 1, "gzd_code": "35Q" }, "geometry": { "type": "Polygon", "coordinates": [ [ [ 2800000.0, 2000000.0 ], [ 3400000.0, 2000000.0 ], [ 3400000.0, 1200000.0 ], [ 2800000.0, 1200000.0 ], [ 2800000.0, 2000000.0 ] ] ] } },
{ "type": "Feature", "properties": { "id": 119, "left": 2800000.0, "top": 1200000.0, "right": 3400000.0, "bottom": 400000.0, "row_index": 1, "col_index": 13, "gzd_col_index": 4, "gzd_row_index": 0, "gzd_code": "35P" }, "geometry": { "type": "Polygon", "coordinates": [ [ [ 2800000.0, 1200000.0 ], [ 3400000.0, 1200000.0 ], [ 3400000.0, 400000.0 ], [ 2800000.0, 400000.0 ], [ 2800000.0, 1200000.0 ] ] ] } },
{ "type": "Feature", "properties": { "id": 120, "left": 2800000.0, "top": 400000.0, "right": 3400000.0, "bottom": -400000.0, "row_index": 2, "col_index": 13, "gzd_col_index": 4, "gzd_row_index": -1, "gzd_code": "35N" }, "geometry": { "type": "Polygon", "coordinates": [ [ [ 2800000.0, 400000.0 ], [ 3400000.0, 400000.0 ], [ 3400000.0, -400000.0 ], [ 2800000.0, -400000.0 ], [ 2800000.0, 400000.0 ] ] ] } },
{ "type": "Feature", "properties": { "id": 121, "left": 2800000.0, "top": -400000.0, "right": 3400000.0, "bottom": -1200000.0, "row_index": 3, "col_index": 13, "gzd_col_index": 4, "gzd_row_index": -2, "gzd_code": "35M" }, "geometry": { "type": "Polygon", "coordinates": [ [ [ 2800000.0, -400000.0 ], [ 3400000.0, -400000.0 ], [ 3400000.0, -1200000.0 ], [ 2800000.0, -1200000.0 ], [ 2800000.0, -400000.0 ] ] ] } },
{ "type": "Feature", "properties": { "id": 122, "left": 2800000.0, "top": -1200000.0, "right": 3400000.0, "bottom": -2000000.0, "row_index": 4, "col_index": 13, "gzd_col_index": 4, "gzd_row_index": -3, "gzd_code": "35L" }, "geometry": { "type": "Polygon", "coordinates": [ [ [ 2800000.0, -1200000.0 ], [ 3400000.0, -1200000.0 ], [ 3400000.0, -2000000.0 ], [ 2800000.0, -2000000.0 ], [ 2800000.0, -1200000.0 ] ] ] } },
{ "type": "Feature", "properties": { "id": 123, "left": 2800000.0, "top": -2000000.0, "right": 3400000.0, "bottom": -2800000.0, "row_index": 5, "col_index": 13, "gzd_col_index": 4, "gzd_row_index": -4, "gzd_code": "35K" }, "geometry": { "type": "Polygon", "coordinates": [ [ [ 2800000.0, -2000000.0 ], [ 3400000.0, -2000000.0 ], [ 3400000.0, -2800000.0 ], [ 2800000.0, -2800000.0 ], [ 2800000.0, -2000000.0 ] ] ] } },
{ "type": "Feature", "properties": { "id": 124, "left": 2800000.0, "top": -2800000.0, "right": 3400000.0, "bottom": -3600000.0, "row_index": 6, "col_index": 13, "gzd_col_index": 4, "gzd_row_index": -5, "gzd_code": "35J" }, "geometry": { "type": "Polygon", "coordinates": [ [ [ 2800000.0, -2800000.0 ], [ 3400000.0, -2800000.0 ], [ 3400000.0, -3600000.0 ], [ 2800000.0, -3600000.0 ], [ 2800000.0, -2800000.0 ] ] ] } },
{ "type": "Feature", "properties": { "id": 125, "left": 2800000.0, "top": -3600000.0, "right": 3400000.0, "bottom": -4400000.0, "row_index": 7, "col_index": 13, "gzd_col_index": 4, "gzd_row_index": -6, "gzd_code": "35H" }, "geometry": { "type": "Polygon", "coordinates": [ [ [ 2800000.0, -3600000.0 ], [ 3400000.0, -3600000.0 ], [ 3400000.0, -4400000.0 ], [ 2800000.0, -4400000.0 ], [ 2800000.0, -3600000.0 ] ] ] } },
{ "type": "Feature", "properties": { "id": 126, "left": 2800000.0, "top": -4400000.0, "right": 3400000.0, "bottom": -5200000.0, "row_index": 8, "col_index": 13, "gzd_col_index": 4, "gzd_row_index": -7, "gzd_code": "35G" }, "geometry": { "type": "Polygon", "coordinates": [ [ [ 2800000.0, -4400000.0 ], [ 3400000.0, -4400000.0 ], [ 3400000.0, -5200000.0 ], [ 2800000.0, -5200000.0 ], [ 2800000.0, -4400000.0 ] ] ] } },
{ "type": "Feature", "properties": { "id": 127, "left": 3400000.0, "top": 2000000.0, "right": 4000000.0, "bottom": 1200000.0, "row_index": 0, "col_index": 14, "gzd_col_index": 5, "gzd_row_index": 1, "gzd_code": "36Q" }, "geometry": { "type": "Polygon", "coordinates": [ [ [ 3400000.0, 2000000.0 ], [ 4000000.0, 2000000.0 ], [ 4000000.0, 1200000.0 ], [ 3400000.0, 1200000.0 ], [ 3400000.0, 2000000.0 ] ] ] } },
{ "type": "Feature", "properties": { "id": 128, "left": 3400000.0, "top": 1200000.0, "right": 4000000.0, "bottom": 400000.0, "row_index": 1, "col_index": 14, "gzd_col_index": 5, "gzd_row_index": 0, "gzd_code": "36P" }, "geometry": { "type": "Polygon", "coordinates": [ [ [ 3400000.0, 1200000.0 ], [ 4000000.0, 1200000.0 ], [ 4000000.0, 400000.0 ], [ 3400000.0, 400000.0 ], [ 3400000.0, 1200000.0 ] ] ] } },
{ "type": "Feature", "properties": { "id": 129, "left": 3400000.0, "top": 400000.0, "right": 4000000.0, "bottom": -400000.0, "row_index": 2, "col_index": 14, "gzd_col_index": 5, "gzd_row_index": -1, "gzd_code": "36N" }, "geometry": { "type": "Polygon", "coordinates": [ [ [ 3400000.0, 400000.0 ], [ 4000000.0, 400000.0 ], [ 4000000.0, -400000.0 ], [ 3400000.0, -400000.0 ], [ 3400000.0, 400000.0 ] ] ] } },
{ "type": "Feature", "properties": { "id": 130, "left": 3400000.0, "top": -400000.0, "right": 4000000.0, "bottom": -1200000.0, "row_index": 3, "col_index": 14, "gzd_col_index": 5, "gzd_row_index": -2, "gzd_code": "36M" }, "geometry": { "type": "Polygon", "coordinates": [ [ [ 3400000.0, -400000.0 ], [ 4000000.0, -400000.0 ], [ 4000000.0, -1200000.0 ], [ 3400000.0, -1200000.0 ], [ 3400000.0, -400000.0 ] ] ] } },
{ "type": "Feature", "properties": { "id": 131, "left": 3400000.0, "top": -1200000.0, "right": 4000000.0, "bottom": -2000000.0, "row_index": 4, "col_index": 14, "gzd_col_index": 5, "gzd_row_index": -3, "gzd_code": "36L" }, "geometry": { "type": "Polygon", "coordinates": [ [ [ 3400000.0, -1200000.0 ], [ 4000000.0, -1200000.0 ], [ 4000000.0, -2000000.0 ], [ 3400000.0, -2000000.0 ], [ 3400000.0, -1200000.0 ] ] ] } },
{ "type": "Feature", "properties": { "id": 132, "left": 3400000.0, "top": -2000000.0, "right": 4000000.0, "bottom": -2800000.0, "row_index": 5, "col_index": 14, "gzd_col_index": 5, "gzd_row_index": -4, "gzd_code": "36K" }, "geometry": { "type": "Polygon", "coordinates": [ [ [ 3400000.0, -2000000.0 ], [ 4000000.0, -2000000.0 ], [ 4000000.0, -2800000.0 ], [ 3400000.0, -2800000.0 ], [ 3400000.0, -2000000.0 ] ] ] } },
{ "type": "Feature", "properties": { "id": 133, "left": 3400000.0, "top": -2800000.0, "right": 4000000.0, "bottom": -3600000.0, "row_index": 6, "col_index": 14, "gzd_col_index": 5, "gzd_row_index": -5, "gzd_code": "36J" }, "geometry": { "type": "Polygon", "coordinates": [ [ [ 3400000.0, -2800000.0 ], [ 4000000.0, -2800000.0 ], [ 4000000.0, -3600000.0 ], [ 3400000.0, -3600000.0 ], [ 3400000.0, -2800000.0 ] ] ] } },
{ "type": "Feature", "properties": { "id": 134, "left": 3400000.0, "top": -3600000.0, "right": 4000000.0, "bottom": -4400000.0, "row_index": 7, "col_index": 14, "gzd_col_index": 5, "gzd_row_index": -6, "gzd_code": "36H" }, "geometry": { "type": "Polygon", "coordinates": [ [ [ 3400000.0, -3600000.0 ], [ 4000000.0, -3600000.0 ], [ 4000000.0, -4400000.0 ], [ 3400000.0, -4400000.0 ], [ 3400000.0, -3600000.0 ] ] ] } },
{ "type": "Feature", "properties": { "id": 135, "left": 3400000.0, "top": -4400000.0, "right": 4000000.0, "bottom": -5200000.0, "row_index": 8, "col_index": 14, "gzd_col_index": 5, "gzd_row_index": -7, "gzd_code": "36G" }, "geometry": { "type": "Polygon", "coordinates": [ [ [ 3400000.0, -4400000.0 ], [ 4000000.0, -4400000.0 ], [ 4000000.0, -5200000.0 ], [ 3400000.0, -5200000.0 ], [ 3400000.0, -4400000.0 ] ] ] } },
{ "type": "Feature", "properties": { "id": 136, "left": 4000000.0, "top": 2000000.0, "right": 4600000.0, "bottom": 1200000.0, "row_index": 0, "col_index": 15, "gzd_col_index": 6, "gzd_row_index": 1, "gzd_code": "37Q" }, "geometry": { "type": "Polygon", "coordinates": [ [ [ 4000000.0, 2000000.0 ], [ 4600000.0, 2000000.0 ], [ 4600000.0, 1200000.0 ], [ 4000000.0, 1200000.0 ], [ 4000000.0, 2000000.0 ] ] ] } },
{ "type": "Feature", "properties": { "id": 137, "left": 4000000.0, "top": 1200000.0, "right": 4600000.0, "bottom": 400000.0, "row_index": 1, "col_index": 15, "gzd_col_index": 6, "gzd_row_index": 0, "gzd_code": "37P" }, "geometry": { "type": "Polygon", "coordinates": [ [ [ 4000000.0, 1200000.0 ], [ 4600000.0, 1200000.0 ], [ 4600000.0, 400000.0 ], [ 4000000.0, 400000.0 ], [ 4000000.0, 1200000.0 ] ] ] } },
{ "type": "Feature", "properties": { "id": 138, "left": 4000000.0, "top": 400000.0, "right": 4600000.0, "bottom": -400000.0, "row_index": 2, "col_index": 15, "gzd_col_index": 6, "gzd_row_index": -1, "gzd_code": "37N" }, "geometry": { "type": "Polygon", "coordinates": [ [ [ 4000000.0, 400000.0 ], [ 4600000.0, 400000.0 ], [ 4600000.0, -400000.0 ], [ 4000000.0, -400000.0 ], [ 4000000.0, 400000.0 ] ] ] } },
{ "type": "Feature", "properties": { "id": 139, "left": 4000000.0, "top": -400000.0, "right": 4600000.0, "bottom": -1200000.0, "row_index": 3, "col_index": 15, "gzd_col_index": 6, "gzd_row_index": -2, "gzd_code": "37M" }, "geometry": { "type": "Polygon", "coordinates": [ [ [ 4000000.0, -400000.0 ], [ 4600000.0, -400000.0 ], [ 4600000.0, -1200000.0 ], [ 4000000.0, -1200000.0 ], [ 4000000.0, -400000.0 ] ] ] } },
{ "type": "Feature", "properties": { "id": 140, "left": 4000000.0, "top": -1200000.0, "right": 4600000.0, "bottom": -2000000.0, "row_index": 4, "col_index": 15, "gzd_col_index": 6, "gzd_row_index": -3, "gzd_code": "37L" }, "geometry": { "type": "Polygon", "coordinates": [ [ [ 4000000.0, -1200000.0 ], [ 4600000.0, -1200000.0 ], [ 4600000.0, -2000000.0 ], [ 4000000.0, -2000000.0 ], [ 4000000.0, -1200000.0 ] ] ] } },
{ "type": "Feature", "properties": { "id": 141, "left": 4000000.0, "top": -2000000.0, "right": 4600000.0, "bottom": -2800000.0, "row_index": 5, "col_index": 15, "gzd_col_index": 6, "gzd_row_index": -4, "gzd_code": "37K" }, "geometry": { "type": "Polygon", "coordinates": [ [ [ 4000000.0, -2000000.0 ], [ 4600000.0, -2000000.0 ], [ 4600000.0, -2800000.0 ], [ 4000000.0, -2800000.0 ], [ 4000000.0, -2000000.0 ] ] ] } },
{ "type": "Feature", "properties": { "id": 142, "left": 4000000.0, "top": -2800000.0, "right": 4600000.0, "bottom": -3600000.0, "row_index": 6, "col_index": 15, "gzd_col_index": 6, "gzd_row_index": -5, "gzd_code": "37J" }, "geometry": { "type": "Polygon", "coordinates": [ [ [ 4000000.0, -2800000.0 ], [ 4600000.0, -2800000.0 ], [ 4600000.0, -3600000.0 ], [ 4000000.0, -3600000.0 ], [ 4000000.0, -2800000.0 ] ] ] } },
{ "type": "Feature", "properties": { "id": 143, "left": 4000000.0, "top": -3600000.0, "right": 4600000.0, "bottom": -4400000.0, "row_index": 7, "col_index": 15, "gzd_col_index": 6, "gzd_row_index": -6, "gzd_code": "37H" }, "geometry": { "type": "Polygon", "coordinates": [ [ [ 4000000.0, -3600000.0 ], [ 4600000.0, -3600000.0 ], [ 4600000.0, -4400000.0 ], [ 4000000.0, -4400000.0 ], [ 4000000.0, -3600000.0 ] ] ] } },
{ "type": "Feature", "properties": { "id": 144, "left": 4000000.0, "top": -4400000.0, "right": 4600000.0, "bottom": -5200000.0, "row_index": 8, "col_index": 15, "gzd_col_index": 6, "gzd_row_index": -7, "gzd_code": "37G" }, "geometry": { "type": "Polygon", "coordinates": [ [ [ 4000000.0, -4400000.0 ], [ 4600000.0, -4400000.0 ], [ 4600000.0, -5200000.0 ], [ 4000000.0, -5200000.0 ], [ 4000000.0, -4400000.0 ] ] ] } },
{ "type": "Feature", "properties": { "id": 145, "left": 4600000.0, "top": 2000000.0, "right": 5200000.0, "bottom": 1200000.0, "row_index": 0, "col_index": 16, "gzd_col_index": 7, "gzd_row_index": 1, "gzd_code": "38Q" }, "geometry": { "type": "Polygon", "coordinates": [ [ [ 4600000.0, 2000000.0 ], [ 5200000.0, 2000000.0 ], [ 5200000.0, 1200000.0 ], [ 4600000.0, 1200000.0 ], [ 4600000.0, 2000000.0 ] ] ] } },
{ "type": "Feature", "properties": { "id": 146, "left": 4600000.0, "top": 1200000.0, "right": 5200000.0, "bottom": 400000.0, "row_index": 1, "col_index": 16, "gzd_col_index": 7, "gzd_row_index": 0, "gzd_code": "38P" }, "geometry": { "type": "Polygon", "coordinates": [ [ [ 4600000.0, 1200000.0 ], [ 5200000.0, 1200000.0 ], [ 5200000.0, 400000.0 ], [ 4600000.0, 400000.0 ], [ 4600000.0, 1200000.0 ] ] ] } },
{ "type": "Feature", "properties": { "id": 147, "left": 4600000.0, "top": 400000.0, "right": 5200000.0, "bottom": -400000.0, "row_index": 2, "col_index": 16, "gzd_col_index": 7, "gzd_row_index": -1, "gzd_code": "38N" }, "geometry": { "type": "Polygon", "coordinates": [ [ [ 4600000.0, 400000.0 ], [ 5200000.0, 400000.0 ], [ 5200000.0, -400000.0 ], [ 4600000.0, -400000.0 ], [ 4600000.0, 400000.0 ] ] ] } },
{ "type": "Feature", "properties": { "id": 148, "left": 4600000.0, "top": -400000.0, "right": 5200000.0, "bottom": -1200000.0, "row_index": 3, "col_index": 16, "gzd_col_index": 7, "gzd_row_index": -2, "gzd_code": "38M" }, "geometry": { "type": "Polygon", "coordinates": [ [ [ 4600000.0, -400000.0 ], [ 5200000.0, -400000.0 ], [ 5200000.0, -1200000.0 ], [ 4600000.0, -1200000.0 ], [ 4600000.0, -400000.0 ] ] ] } },
{ "type": "Feature", "properties": { "id": 149, "left": 4600000.0, "top": -1200000.0, "right": 5200000.0, "bottom": -2000000.0, "row_index": 4, "col_index": 16, "gzd_col_index": 7, "gzd_row_index": -3, "gzd_code": "38L" }, "geometry": { "type": "Polygon", "coordinates": [ [ [ 4600000.0, -1200000.0 ], [ 5200000.0, -1200000.0 ], [ 5200000.0, -2000000.0 ], [ 4600000.0, -2000000.0 ], [ 4600000.0, -1200000.0 ] ] ] } },
{ "type": "Feature", "properties": { "id": 150, "left": 4600000.0, "top": -2000000.0, "right": 5200000.0, "bottom": -2800000.0, "row_index": 5, "col_index": 16, "gzd_col_index": 7, "gzd_row_index": -4, "gzd_code": "38K" }, "geometry": { "type": "Polygon", "coordinates": [ [ [ 4600000.0, -2000000.0 ], [ 5200000.0, -2000000.0 ], [ 5200000.0, -2800000.0 ], [ 4600000.0, -2800000.0 ], [ 4600000.0, -2000000.0 ] ] ] } },
{ "type": "Feature", "properties": { "id": 151, "left": 4600000.0, "top": -2800000.0, "right": 5200000.0, "bottom": -3600000.0, "row_index": 6, "col_index": 16, "gzd_col_index": 7, "gzd_row_index": -5, "gzd_code": "38J" }, "geometry": { "type": "Polygon", "coordinates": [ [ [ 4600000.0, -2800000.0 ], [ 5200000.0, -2800000.0 ], [ 5200000.0, -3600000.0 ], [ 4600000.0, -3600000.0 ], [ 4600000.0, -2800000.0 ] ] ] } },
{ "type": "Feature", "properties": { "id": 152, "left": 4600000.0, "top": -3600000.0, "right": 5200000.0, "bottom": -4400000.0, "row_index": 7, "col_index": 16, "gzd_col_index": 7, "gzd_row_index": -6, "gzd_code": "38H" }, "geometry": { "type": "Polygon", "coordinates": [ [ [ 4600000.0, -3600000.0 ], [ 5200000.0, -3600000.0 ], [ 5200000.0, -4400000.0 ], [ 4600000.0, -4400000.0 ], [ 4600000.0, -3600000.0 ] ] ] } },
{ "type": "Feature", "properties": { "id": 153, "left": 4600000.0, "top": -4400000.0, "right": 5200000.0, "bottom": -5200000.0, "row_index": 8, "col_index": 16, "gzd_col_index": 7, "gzd_row_index": -7, "gzd_code": "38G" }, "geometry": { "type": "Polygon", "coordinates": [ [ [ 4600000.0, -4400000.0 ], [ 5200000.0, -4400000.0 ], [ 5200000.0, -5200000.0 ], [ 4600000.0, -5200000.0 ], [ 4600000.0, -4400000.0 ] ] ] } }
]
}
