{
"type": "FeatureCollection",
"name": "wildemount_city_ward_labels",
"crs": { "type": "name", "properties": { "name": "urn:ogc:def:crs:OGC:1.3:CRS84" } },
"features": [
{ "type": "Feature", "properties": { "id": null, "City": "Rexxentrum", "Region Nam": "Mudtop Ward" }, "geometry": { "type": "Point", "coordinates": [ 21.406142081186388, 8.874312091946422 ] } },
{ "type": "Feature", "properties": { "id": null, "City": "Rexxentrum", "Region Nam": "The Tangles" }, "geometry": { "type": "Point", "coordinates": [ 21.394747331083153, 8.863423466981294 ] } },
{ "type": "Feature", "properties": { "id": null, "City": "Rexxentrum", "Region Nam": "Shimmer Ward" }, "geometry": { "type": "Point", "coordinates": [ 21.406991352672904, 8.857033654073518 ] } },
{ "type": "Feature", "properties": { "id": null, "City": "Rexxentrum", "Region Nam": "Mosaic Ward" }, "geometry": { "type": "Point", "coordinates": [ 21.399206486535348, 8.847643250864982 ] } }
]
}
